OBJECT_NAME,OBJECT_ID,EPOCH,MEAN_MOTION,ECCENTRICITY,INCLINATION,RA_OF_ASC_NODE,ARG_OF_PERICENTER,MEAN_ANOMALY,EPHEMERIS_TYPE,CLASSIFICATION_TYPE,NORAD_CAT_ID,ELEMENT_SET_NO,REV_AT_EPOCH,BSTAR,MEAN_MOTION_DOT,MEAN_MOTION_DDOT
SAUDISAT 1C (SO-50),2002-058C,2026-07-02T17:34:05.250144,14.83079392,.0074883,64.5520,80.8899,259.5665,99.6996,0,U,27607,999,26676,.14185E-3,.1058E-4,0
SAUDISAT 2,2004-025F,2026-07-02T06:40:14.009952,14.56692512,.0023503,98.5511,183.6500,249.4990,110.3685,0,U,28371,999,16794,.76076E-4,.291E-5,0
SAUDISAT 3,2007-012B,2026-07-02T19:56:51.860256,14.71434689,.0014726,98.1462,134.2426,172.5255,187.6174,0,U,31118,999,3004,.61083E-4,.328E-5,0
PISAT,2016-059B,2026-07-02T11:16:40.498752,14.69011061,.0029647,97.8182,183.2661,153.9873,206.2831,0,U,41784,999,52198,.19878E-3,.1126E-4,0
FLYING LAPTOP,2017-042G,2026-07-02T20:23:22.657920,15.01250832,.0019994,97.4759,338.7866,71.7378,288.6020,0,U,42831,999,48880,.5008E-3,.6406E-4,0
SALSAT,2020-068K,2026-07-02T06:06:00.402048,15.30013367,.0008038,97.8847,187.2381,243.7769,116.2645,0,U,46495,999,31766,.29987E-3,.8637E-4,0
